CCSDS_OMM_VERS = 2.0
CREATION_DATE  = 
ORIGINATOR     = 

OBJECT_NAME    = SL-14 R/B
OBJECT_ID      = 1991-042B
CENTER_NAME    = EARTH
REF_FRAME      = TEME
TIME_SYSTEM    = UTC
MEAN_ELEMENT_THEORY = SGP/SGP4

EPOCH          = 2026-01-15T17:58:45.525792
MEAN_MOTION    = 14.81774346
ECCENTRICITY   = .00183796
INCLINATION    = 82.4928
RA_OF_ASC_NODE = 269.8356
ARG_OF_PERICENTER = 57.7557
MEAN_ANOMALY   = 302.5435

EPHEMERIS_TYPE = 0
CLASSIFICATION_TYPE = U
NORAD_CAT_ID   = 21423
ELEMENT_SET_NO = 999
REV_AT_EPOCH   = 84523
BSTAR          = .29743922E-4
MEAN_MOTION_DOT = .259E-5
MEAN_MOTION_DDOT = 0

CCSDS_OMM_VERS = 2.0
CREATION_DATE  = 
ORIGINATOR     = 

OBJECT_NAME    = ERS-1
OBJECT_ID      = 1991-050A
CENTER_NAME    = EARTH
REF_FRAME      = TEME
TIME_SYSTEM    = UTC
MEAN_ELEMENT_THEORY = SGP/SGP4

EPOCH          = 2026-01-15T15:50:01.745952
MEAN_MOTION    = 14.39396072
ECCENTRICITY   = .00319782
INCLINATION    = 98.7897
RA_OF_ASC_NODE = 32.5624
ARG_OF_PERICENTER = 1.5808
MEAN_ANOMALY   = 358.5474

EPHEMERIS_TYPE = 0
CLASSIFICATION_TYPE = U
NORAD_CAT_ID   = 21574
ELEMENT_SET_NO = 999
REV_AT_EPOCH   = 80810
BSTAR          = .81109044E-4
MEAN_MOTION_DOT = .207E-5
MEAN_MOTION_DDOT = 0

CCSDS_OMM_VERS = 2.0
CREATION_DATE  = 
ORIGINATOR     = 

OBJECT_NAME    = ARIANE 40 R/B
OBJECT_ID      = 1991-050F
CENTER_NAME    = EARTH
REF_FRAME      = TEME
TIME_SYSTEM    = UTC
MEAN_ELEMENT_THEORY = SGP/SGP4

EPOCH          = 2026-01-15T18:25:00.818112
MEAN_MOTION    = 14.42844520
ECCENTRICITY   = .00023707
INCLINATION    = 98.2116
RA_OF_ASC_NODE = 69.9622
ARG_OF_PERICENTER = 215.9668
MEAN_ANOMALY   = 144.1363

EPHEMERIS_TYPE = 0
CLASSIFICATION_TYPE = U
NORAD_CAT_ID   = 21610
ELEMENT_SET_NO = 999
REV_AT_EPOCH   = 81136
BSTAR          = .73721144E-4
MEAN_MOTION_DOT = .204E-5
MEAN_MOTION_DDOT = 0

CCSDS_OMM_VERS = 2.0
CREATION_DATE  = 
ORIGINATOR     = 

OBJECT_NAME    = INTERCOSMOS 25
OBJECT_ID      = 1991-086A
CENTER_NAME    = EARTH
REF_FRAME      = TEME
TIME_SYSTEM    = UTC
MEAN_ELEMENT_THEORY = SGP/SGP4

EPOCH          = 2026-01-15T21:34:13.087776
MEAN_MOTION    = 12.11855620
ECCENTRICITY   = .14860065
INCLINATION    = 82.6086
RA_OF_ASC_NODE = 341.9134
ARG_OF_PERICENTER = 230.7127
MEAN_ANOMALY   = 115.2708

EPHEMERIS_TYPE = 0
CLASSIFICATION_TYPE = U
NORAD_CAT_ID   = 21819
ELEMENT_SET_NO = 999
REV_AT_EPOCH   = 49029
BSTAR          = .1293899E-3
MEAN_MOTION_DOT = .656E-5
MEAN_MOTION_DDOT = 0

CCSDS_OMM_VERS = 2.0
CREATION_DATE  = 
ORIGINATOR     = 

OBJECT_NAME    = SL-8 R/B
OBJECT_ID      = 1992-008B
CENTER_NAME    = EARTH
REF_FRAME      = TEME
TIME_SYSTEM    = UTC
MEAN_ELEMENT_THEORY = SGP/SGP4

EPOCH          = 2026-01-15T20:33:29.828736
MEAN_MOTION    = 13.75966323
ECCENTRICITY   = .00333917
INCLINATION    = 82.9289
RA_OF_ASC_NODE = 307.0737
ARG_OF_PERICENTER = 283.1124
MEAN_ANOMALY   = 138.4443

EPHEMERIS_TYPE = 0
CLASSIFICATION_TYPE = U
NORAD_CAT_ID   = 21876
ELEMENT_SET_NO = 999
REV_AT_EPOCH   = 70215
BSTAR          = .46238976E-4
MEAN_MOTION_DOT = .6E-6
MEAN_MOTION_DDOT = 0

CCSDS_OMM_VERS = 2.0
CREATION_DATE  = 
ORIGINATOR     = 

OBJECT_NAME    = SL-8 R/B
OBJECT_ID      = 1992-020B
CENTER_NAME    = EARTH
REF_FRAME      = TEME
TIME_SYSTEM    = UTC
MEAN_ELEMENT_THEORY = SGP/SGP4

EPOCH          = 2026-01-15T14:14:50.766432
MEAN_MOTION    = 13.75537940
ECCENTRICITY   = .0030251
INCLINATION    = 82.9295
RA_OF_ASC_NODE = 193.1769
ARG_OF_PERICENTER = 86.3484
MEAN_ANOMALY   = 340.8705

EPHEMERIS_TYPE = 0
CLASSIFICATION_TYPE = U
NORAD_CAT_ID   = 21938
ELEMENT_SET_NO = 999
REV_AT_EPOCH   = 69383
BSTAR          = .14085E-3
MEAN_MOTION_DOT = .151E-5
MEAN_MOTION_DDOT = 0

CCSDS_OMM_VERS = 2.0
CREATION_DATE  = 
ORIGINATOR     = 

OBJECT_NAME    = USA 81
OBJECT_ID      = 1992-023A
CENTER_NAME    = EARTH
REF_FRAME      = TEME
TIME_SYSTEM    = UTC
MEAN_ELEMENT_THEORY = SGP/SGP4

EPOCH          = 2026-01-15T20:18:10.876608
MEAN_MOTION    = 14.32342409
ECCENTRICITY   = .00017396
INCLINATION    = 85.0103
RA_OF_ASC_NODE = 161.9075
ARG_OF_PERICENTER = 117.6379
MEAN_ANOMALY   = 242.4991

EPHEMERIS_TYPE = 0
CLASSIFICATION_TYPE = U
NORAD_CAT_ID   = 21949
ELEMENT_SET_NO = 999
REV_AT_EPOCH   = 8722
BSTAR          = .45755061E-4
MEAN_MOTION_DOT = .143E-5
MEAN_MOTION_DDOT = 0

CCSDS_OMM_VERS = 2.0
CREATION_DATE  = 
ORIGINATOR     = 

OBJECT_NAME    = COSMOS 2219
OBJECT_ID      = 1992-076A
CENTER_NAME    = EARTH
REF_FRAME      = TEME
TIME_SYSTEM    = UTC
MEAN_ELEMENT_THEORY = SGP/SGP4

EPOCH          = 2026-01-15T18:00:03.967488
MEAN_MOTION    = 14.14081360
ECCENTRICITY   = .00206988
INCLINATION    = 71.0619
RA_OF_ASC_NODE = 128.7393
ARG_OF_PERICENTER = 280.2580
MEAN_ANOMALY   = 79.6208

EPHEMERIS_TYPE = 0
CLASSIFICATION_TYPE = U
NORAD_CAT_ID   = 22219
ELEMENT_SET_NO = 999
REV_AT_EPOCH   = 71089
BSTAR          = -.15074196E-4
MEAN_MOTION_DOT = -.76E-6
MEAN_MOTION_DDOT = 0

CCSDS_OMM_VERS = 2.0
CREATION_DATE  = 
ORIGINATOR     = 

OBJECT_NAME    = SL-16 R/B
OBJECT_ID      = 1992-076B
CENTER_NAME    = EARTH
REF_FRAME      = TEME
TIME_SYSTEM    = UTC
MEAN_ELEMENT_THEORY = SGP/SGP4

EPOCH          = 2026-01-15T19:36:38.769696
MEAN_MOTION    = 14.16849898
ECCENTRICITY   = .00129192
INCLINATION    = 71.0015
RA_OF_ASC_NODE = 299.7491
ARG_OF_PERICENTER = 186.3639
MEAN_ANOMALY   = 234.3476

EPHEMERIS_TYPE = 0
CLASSIFICATION_TYPE = U
NORAD_CAT_ID   = 22220
ELEMENT_SET_NO = 999
REV_AT_EPOCH   = 71434
BSTAR          = .75295742E-4
MEAN_MOTION_DOT = .103E-5
MEAN_MOTION_DDOT = 0

CCSDS_OMM_VERS = 2.0
CREATION_DATE  = 
ORIGINATOR     = 

OBJECT_NAME    = COSMOS 2221
OBJECT_ID      = 1992-080A
CENTER_NAME    = EARTH
REF_FRAME      = TEME
TIME_SYSTEM    = UTC
MEAN_ELEMENT_THEORY = SGP/SGP4

EPOCH          = 2026-01-15T20:48:04.565664
MEAN_MOTION    = 14.95929034
ECCENTRICITY   = .00151166
INCLINATION    = 82.5059
RA_OF_ASC_NODE = 329.6575
ARG_OF_PERICENTER = 17.0684
MEAN_ANOMALY   = 343.1043

EPHEMERIS_TYPE = 0
CLASSIFICATION_TYPE = U
NORAD_CAT_ID   = 22236
ELEMENT_SET_NO = 999
REV_AT_EPOCH   = 77289
BSTAR          = .12784162E-3
MEAN_MOTION_DOT = .146E-4
MEAN_MOTION_DDOT = 0

CCSDS_OMM_VERS = 2.0
CREATION_DATE  = 
ORIGINATOR     = 

OBJECT_NAME    = SL-16 R/B
OBJECT_ID      = 1992-093B
CENTER_NAME    = EARTH
REF_FRAME      = TEME
TIME_SYSTEM    = UTC
MEAN_ELEMENT_THEORY = SGP/SGP4

EPOCH          = 2026-01-15T17:40:56.287776
MEAN_MOTION    = 14.15437313
ECCENTRICITY   = .00037519
INCLINATION    = 71.0222
RA_OF_ASC_NODE = 115.4311
ARG_OF_PERICENTER = 356.8886
MEAN_ANOMALY   = 3.2213

EPHEMERIS_TYPE = 0
CLASSIFICATION_TYPE = U
NORAD_CAT_ID   = 22285
ELEMENT_SET_NO = 999
REV_AT_EPOCH   = 70566
BSTAR          = .16997218E-3
MEAN_MOTION_DOT = .284E-5
MEAN_MOTION_DDOT = 0

CCSDS_OMM_VERS = 2.0
CREATION_DATE  = 
ORIGINATOR     = 

OBJECT_NAME    = COSMOS 2228
OBJECT_ID      = 1992-094A
CENTER_NAME    = EARTH
REF_FRAME      = TEME
TIME_SYSTEM    = UTC
MEAN_ELEMENT_THEORY = SGP/SGP4

EPOCH          = 2026-01-15T22:01:17.590944
MEAN_MOTION    = 14.96912144
ECCENTRICITY   = .00193897
INCLINATION    = 82.5189
RA_OF_ASC_NODE = 287.8329
ARG_OF_PERICENTER = 116.5171
MEAN_ANOMALY   = 243.8043

EPHEMERIS_TYPE = 0
CLASSIFICATION_TYPE = U
NORAD_CAT_ID   = 22286
ELEMENT_SET_NO = 999
REV_AT_EPOCH   = 76816
BSTAR          = .12007894E-3
MEAN_MOTION_DOT = .141E-4
MEAN_MOTION_DDOT = 0

